{"type": "FeatureCollection", "features": [ {"type": "Feature", "properties": {"norad_id": 40115, "name": "WORLDVIEW-3 (WV-3)", "group": "resource", "lat": -72.46066147600865, "lon": 76.72053782071687, "alt_km": 618.4461988918392, "timestamp": "2025-12-04T09:47:37.179798+00:00", "meta": {"OBJECT_NAME": "WORLDVIEW-3 (WV-3)", "OBJECT_ID": "2014-048A", "EPOCH": "2025-12-03T21:11:40.574400", "MEAN_MOTION": 14.85476881, "ECCENTRICITY": 0.00041112, "INCLINATION": 97.8626, "RA_OF_ASC_NODE": 50.2746, "ARG_OF_PERICENTER": 216.6115, "MEAN_ANOMALY": 143.482, "EPHEMERIS_TYPE": 0, "CLASSIFICATION_TYPE": "U", "NORAD_CAT_ID": 40115, "ELEMENT_SET_NO": 999, "REV_AT_EPOCH": 61292, "BSTAR": 0.00025704872, "MEAN_MOTION_DOT": 2.164e-05, "MEAN_MOTION_DDOT": 0}, "tle": {"line1": "1 40115U 14048A   25337.88310850  .00002164  00000+0  25705-3 0  9995", "line2": "2 40115  97.8626  50.2746 0004111 216.6115 143.4820 14.85476881612928"}}, "geometry": {"type": "Point", "coordinates": [76.72053782071687, -72.46066147600865]}}, {"type": "Feature", "properties": {"norad_id": 40118, "name": "GAOFEN-2", "group": "resource", "lat": -68.3465282274408, "lon": -163.29429466816796, "alt_km": 636.9892795126207, "timestamp": "2025-12-04T09:47:37.179809+00:00", "meta": {"OBJECT_NAME": "GAOFEN-2", "OBJECT_ID": "2014-049A", "EPOCH": "2025-12-03T22:56:15.718272", "MEAN_MOTION": 14.80584377, "ECCENTRICITY": 0.00082328, "INCLINATION": 98.0397, "RA_OF_ASC_NODE": 37.1085, "ARG_OF_PERICENTER": 138.2448, "MEAN_ANOMALY": 221.9393, "EPHEMERIS_TYPE": 0, "CLASSIFICATION_TYPE": "U", "NORAD_CAT_ID": 40118, "ELEMENT_SET_NO": 999, "REV_AT_EPOCH": 61034, "BSTAR": 0.0002005687, "MEAN_MOTION_DOT": 1.485e-05, "MEAN_MOTION_DDOT": 0}, "tle": {"line1": "1 40118U 14049A   25337.95573748  .00001485  00000+0  20057-3 0  9994", "line2": "2 40118  98.0397  37.1085 0008232 138.2448 221.9393 14.80584377610341"}}, "geometry": {"type": "Point", "coordinates": [-163.29429466816796, -68.3465282274408]}}, {"type": "Feature", "properties": {"norad_id": 40143, "name": "YAOGAN-21", "group": "resource", "lat": 5.5064546533204455, "lon": 21.388015733353676, "alt_km": 494.1996880069919, "timestamp": "2025-12-04T09:47:37.179820+00:00", "meta": {"OBJECT_NAME": "YAOGAN-21", "OBJECT_ID": "2014-053A", "EPOCH": "2025-12-03T22:44:06.466848", "MEAN_MOTION": 15.23504825, "ECCENTRICITY": 0.00101998, "INCLINATION": 97.1772, "RA_OF_ASC_NODE": 21.6433, "ARG_OF_PERICENTER": 68.432, "MEAN_ANOMALY": 291.8003, "EPHEMERIS_TYPE": 0, "CLASSIFICATION_TYPE": "U", "NORAD_CAT_ID": 40143, "ELEMENT_SET_NO": 999, "REV_AT_EPOCH": 62520, "BSTAR": 0.00063767311, "MEAN_MOTION_DOT": 0.00015191, "MEAN_MOTION_DDOT": 0}, "tle": {"line1": "1 40143U 14053A   25337.94729707  .00015191  00000+0  63767-3 0  9998", "line2": "2 40143  97.1772  21.6433 0010199  68.4320 291.8003 15.23504825625202"}}, "geometry": {"type": "Point", "coordinates": [21.388015733353676, 5.5064546533204455]}}, {"type": "Feature", "properties": {"norad_id": 40275, "name": "YAOGAN-22", "group": "resource", "lat": -47.7077455493744, "lon": 133.7538273562368, "alt_km": 1205.246844160075, "timestamp": "2025-12-04T09:47:37.179830+00:00", "meta": {"OBJECT_NAME": "YAOGAN-22", "OBJECT_ID": "2014-063A", "EPOCH": "2025-12-03T23:05:23.791488", "MEAN_MOTION": 13.15522462, "ECCENTRICITY": 0.00058831, "INCLINATION": 100.7418, "RA_OF_ASC_NODE": 121.2578, "ARG_OF_PERICENTER": 269.4316, "MEAN_ANOMALY": 90.6121, "EPHEMERIS_TYPE": 0, "CLASSIFICATION_TYPE": "U", "NORAD_CAT_ID": 40275, "ELEMENT_SET_NO": 999, "REV_AT_EPOCH": 53414, "BSTAR": 0.0001631289, "MEAN_MOTION_DOT": 1.5e-07, "MEAN_MOTION_DDOT": 0}, "tle": {"line1": "1 40275U 14063A   25337.96208092  .00000015  00000+0  16313-3 0  9990", "line2": "2 40275 100.7418 121.2578 0005883 269.4316  90.6121 13.15522462534149"}}, "geometry": {"type": "Point", "coordinates": [133.7538273562368, -47.7077455493744]}}, {"type": "Feature", "properties": {"norad_id": 40298, "name": "ASNARO", "group": "resource", "lat": -0.6158798185083534, "lon": -125.51912531969307, "alt_km": 508.43121809369404, "timestamp": "2025-12-04T09:47:37.179840+00:00", "meta": {"OBJECT_NAME": "ASNARO", "OBJECT_ID": "2014-070A", "EPOCH": "2025-12-04T01:05:52.938240", "MEAN_MOTION": 15.19205311, "ECCENTRICITY": 0.0005153, "INCLINATION": 97.3669, "RA_OF_ASC_NODE": 54.2072, "ARG_OF_PERICENTER": 147.48, "MEAN_ANOMALY": 212.6753, "EPHEMERIS_TYPE": 0, "CLASSIFICATION_TYPE": "U", "NORAD_CAT_ID": 40298, "ELEMENT_SET_NO": 999, "REV_AT_EPOCH": 61437, "BSTAR": 0.00098587, "MEAN_MOTION_DOT": 0.00020733, "MEAN_MOTION_DDOT": 0}, "tle": {"line1": "1 40298U 14070A   25338.04575160  .00020733  00000+0  98587-3 0  9998", "line2": "2 40298  97.3669  54.2072 0005153 147.4800 212.6753 15.19205311614378"}}, "geometry": {"type": "Point", "coordinates": [-125.51912531969307, -0.6158798185083534]}}, {"type": "Feature", "properties": {"norad_id": 40310, "name": "YAOGAN-24", "group": "resource", "lat": 5.908991878643991, "lon": 108.61037665982566, "alt_km": 652.9912984776211, "timestamp": "2025-12-04T09:47:37.179851+00:00", "meta": {"OBJECT_NAME": "YAOGAN-24", "OBJECT_ID": "2014-072A", "EPOCH": "2025-12-04T00:00:20.169216", "MEAN_MOTION": 14.76147906, "ECCENTRICITY": 0.00142909, "INCLINATION": 98.1218, "RA_OF_ASC_NODE": 109.0474, "ARG_OF_PERICENTER": 165.0865, "MEAN_ANOMALY": 195.0768, "EPHEMERIS_TYPE": 0, "CLASSIFICATION_TYPE": "U", "NORAD_CAT_ID": 40310, "ELEMENT_SET_NO": 999, "REV_AT_EPOCH": 59492, "BSTAR": 0.00027008168, "MEAN_MOTION_DOT": 1.816e-05, "MEAN_MOTION_DDOT": 0}, "tle": {"line1": "1 40310U 14072A   25338.00023344  .00001816  00000+0  27008-3 0  9994", "line2": "2 40310  98.1218 109.0474 0014290 165.0865 195.0768 14.76147906594921"}}, "geometry": {"type": "Point", "coordinates": [108.61037665982566, 5.908991878643991]}}, {"type": "Feature", "properties": {"norad_id": 40336, "name": "CBERS 4", "group": "resource", "lat": -62.90342702597453, "lon": -159.93482393161, "alt_km": 780.9954012231537, "timestamp": "2025-12-04T09:47:37.179861+00:00", "meta": {"OBJECT_NAME": "CBERS 4", "OBJECT_ID": "2014-079A", "EPOCH": "2025-12-04T00:17:45.965184", "MEAN_MOTION": 14.35528976, "ECCENTRICITY": 0.00014752, "INCLINATION": 98.3322, "RA_OF_ASC_NODE": 36.3274, "ARG_OF_PERICENTER": 126.1377, "MEAN_ANOMALY": 233.9945, "EPHEMERIS_TYPE": 0, "CLASSIFICATION_TYPE": "U", "NORAD_CAT_ID": 40336, "ELEMENT_SET_NO": 999, "REV_AT_EPOCH": 57595, "BSTAR": 0.00012879181, "MEAN_MOTION_DOT": 3.29e-06, "MEAN_MOTION_DDOT": 0}, "tle": {"line1": "1 40336U 14079A   25338.01233756  .00000329  00000+0  12879-3 0  9998", "line2": "2 40336  98.3322  36.3274 0001475 126.1377 233.9945 14.35528976575950"}}, "geometry": {"type": "Point", "coordinates": [-159.93482393161, -62.90342702597453]}}, {"type": "Feature", "properties": {"norad_id": 40362, "name": "YAOGAN-26", "group": "resource", "lat": -22.879018401594042, "lon": -17.618382298704937, "alt_km": 453.7624930404618, "timestamp": "2025-12-04T09:47:37.179871+00:00", "meta": {"OBJECT_NAME": "YAOGAN-26", "OBJECT_ID": "2014-088A", "EPOCH": "2025-12-04T00:31:47.146080", "MEAN_MOTION": 15.3882383, "ECCENTRICITY": 0.0007279, "INCLINATION": 97.0636, "RA_OF_ASC_NODE": 339.0102, "ARG_OF_PERICENTER": 53.4318, "MEAN_ANOMALY": 306.7598, "EPHEMERIS_TYPE": 0, "CLASSIFICATION_TYPE": "U", "NORAD_CAT_ID": 40362, "ELEMENT_SET_NO": 999, "REV_AT_EPOCH": 60760, "BSTAR": 0.00088066218, "MEAN_MOTION_DOT": 0.00033867, "MEAN_MOTION_DDOT": 0}, "tle": {"line1": "1 40362U 14088A   25338.02207345  .00033867  00000+0  88066-3 0  9997", "line2": "2 40362  97.0636 339.0102 0007279  53.4318 306.7598 15.38823830607603"}}, "geometry": {"type": "Point", "coordinates": [-17.618382298704937, -22.879018401594042]}}, {"type": "Feature", "properties": {"norad_id": 40376, "name": "SMAP", "group": "resource", "lat": -26.187387673613237, "lon": -12.717089834402277, "alt_km": 688.4490617651545, "timestamp": "2025-12-04T09:47:37.179881+00:00", "meta": {"OBJECT_NAME": "SMAP", "OBJECT_ID": "2015-003A", "EPOCH": "2025-12-03T22:25:36.684768", "MEAN_MOTION": 14.63327655, "ECCENTRICITY": 0.00012088, "INCLINATION": 98.1291, "RA_OF_ASC_NODE": 342.7853, "ARG_OF_PERICENTER": 86.8011, "MEAN_ANOMALY": 273.333, "EPHEMERIS_TYPE": 0, "CLASSIFICATION_TYPE": "U", "NORAD_CAT_ID": 40376, "ELEMENT_SET_NO": 999, "REV_AT_EPOCH": 57906, "BSTAR": 0.00021709452, "MEAN_MOTION_DOT": 1.074e-05, "MEAN_MOTION_DDOT": 0}, "tle": {"line1": "1 40376U 15003A   25337.93445237  .00001074  00000+0  21709-3 0  9999", "line2": "2 40376  98.1291 342.7853 0001208  86.8011 273.3330 14.63327655579069"}}, "geometry": {"type": "Point", "coordinates": [-12.717089834402277, -26.187387673613237]}}, {"type": "Feature", "properties": {"norad_id": 40536, "name": "KOMPSAT-3A", "group": "resource", "lat": 41.2261762932526, "lon": 139.0860874998188, "alt_km": 429.9640992312834, "timestamp": "2025-12-04T09:47:37.179892+00:00", "meta": {"OBJECT_NAME": "KOMPSAT-3A", "OBJECT_ID": "2015-014A", "EPOCH": "2025-12-04T04:31:44.582016", "MEAN_MOTION": 15.43474882, "ECCENTRICITY": 0.0003888, "INCLINATION": 97.6774, "RA_OF_ASC_NODE": 312.0663, "ARG_OF_PERICENTER": 145.3721, "MEAN_ANOMALY": 214.7779, "EPHEMERIS_TYPE": 0, "CLASSIFICATION_TYPE": "U", "NORAD_CAT_ID": 40536, "ELEMENT_SET_NO": 999, "REV_AT_EPOCH": 59163, "BSTAR": 0.00082557, "MEAN_MOTION_DOT": 0.00037013, "MEAN_MOTION_DDOT": 0}, "tle": {"line1": "1 40536U 15014A   25338.18871044  .00037013  00000+0  82557-3 0  9996", "line2": "2 40536  97.6774 312.0663 0003888 145.3721 214.7779 15.43474882591638"}}, "geometry": {"type": "Point", "coordinates": [139.0860874998188, 41.2261762932526]}}]}